NORAD_CAT_ID,OBJECT_NAME,OBJECT_TYPE,EPOCH,MEAN_MOTION,ECCENTRICITY,INCLINATION,RA_OF_ASC_NODE,ARG_OF_PERICENTER,MEAN_ANOMALY,BSTAR,MEAN_MOTION_DOT,MEAN_MOTION_DDOT,TLE_LINE0,TLE_LINE1,TLE_LINE2,SEMIMAJOR_AXIS,PERIOD,APOGEE,PERIGEE,DECAYED
55964.0,STARLINK-5895,PAYLOAD,2024-07-19 18:47:58,14.96713344,0.0002745,70.0015,331.0998,267.0882,92.9962,0.00027901,3.103e-05,0.0,0 STARLINK-5895,1 55964U 23037BC  24201.78331267  .00003103  00000-0  27901-3 0  9999,2 55964  70.0015 331.0998 0002745 267.0882  92.9962 14.96713344 74930,6955.197,96.211,578.971,575.153,0.0
55964.0,STARLINK-5895,PAYLOAD,2024-07-20 12:26:35,14.96716583,0.0002546,70.0024,329.2528,260.6426,99.4444,-1.5711e-05,-2.71e-06,0.0,0 STARLINK-5895,1 55964U 23037BC  24202.51847119 -.00000271  00000-0 -15711-4 0  9991,2 55964  70.0024 329.2528 0002546 260.6426  99.4444 14.96716583 75385,6955.187,96.211,578.823,575.281,0.0
55964.0,STARLINK-5895,PAYLOAD,2024-07-20 14:02:50,14.96716304,0.0002533,70.0024,329.0843,261.832,98.2551,-1.432e-05,-2.55e-06,0.0,0 STARLINK-5895,1 55964U 23037BC  24202.58530333 -.00000255  00000-0 -14320-4 0  9992,2 55964  70.0024 329.0843 0002533 261.8320  98.2551 14.96716304 75056,6955.188,96.211,578.814,575.291,0.0
55964.0,STARLINK-5895,PAYLOAD,2024-07-20 18:51:32,14.96719071,0.0002451,70.0024,328.5789,261.7329,98.3551,4.3263e-05,4.04e-06,0.0,0 STARLINK-5895,1 55964U 23037BC  24202.78579608  .00000404  00000-0  43263-4 0  9994,2 55964  70.0024 328.5789 0002451 261.7329  98.3551 14.96719071 75084,6955.179,96.21,578.749,575.339,0.0
55964.0,STARLINK-5895,PAYLOAD,2024-07-21 12:30:10,14.96711024,0.0002537,70.0027,326.7292,266.3307,93.7561,-6.132e-05,-7.93e-06,0.0,0 STARLINK-5895,1 55964U 23037BC  24203.52095446 -.00000793  00000-0 -61320-4 0  9997,2 55964  70.0027 326.7292 0002537 266.3307  93.7561 14.96711024 75538,6955.204,96.211,578.833,575.304,0.0
55964.0,STARLINK-5895,PAYLOAD,2024-07-21 14:06:24,14.96710984,0.0002615,70.0024,326.5611,271.9442,88.1417,-6.3912e-05,-8.23e-06,0.0,0 STARLINK-5895,1 55964U 23037BC  24203.58778702 -.00000823  00000-0 -63912-4 0  9999,2 55964  70.0024 326.5611 0002615 271.9442  88.1417 14.96710984 75203,6955.204,96.211,578.888,575.25,0.0
55964.0,STARLINK-5895,PAYLOAD,2024-07-21 17:18:53,14.96712215,0.0002624,70.0026,326.225,271.7379,88.3478,-4.0154e-05,-5.51e-06,0.0,0 STARLINK-5895,1 55964U 23037BC  24203.72144963 -.00000551  00000-0 -40154-4 0  9992,2 55964  70.0026 326.2250 0002624 271.7379  88.3478 14.96712215 75228,6955.2,96.211,578.89,575.24,0.0
55964.0,STARLINK-5895,PAYLOAD,2024-07-22 09:21:15,14.9671633,0.0002727,70.002,324.5451,266.346,93.7387,-1.5533e-05,-2.69e-06,0.0,0 STARLINK-5895,1 55964U 23037BC  24204.38976579 -.00000269  00000-0 -15533-4 0  9990,2 55964  70.0020 324.5451 0002727 266.3460  93.7387 14.96716330 75660,6955.188,96.211,578.949,575.156,0.0
55964.0,STARLINK-5895,PAYLOAD,2024-07-23 09:24:49,14.96713654,0.0002764,70.002,322.0236,268.1448,91.9394,7.5449e-05,7.72e-06,0.0,0 STARLINK-5895,1 55964U 23037BC  24205.39224416  .00000772  00000-0  75449-4 0  9997,2 55964  70.0020 322.0236 0002764 268.1448  91.9394 14.96713654 75812,6955.196,96.211,578.983,575.138,0.0
55964.0,STARLINK-5895,PAYLOAD,2024-07-23 14:13:32,14.96714058,0.0002892,70.0016,321.5181,269.1643,90.9184,4.0382e-05,3.71e-06,0.0,0 STARLINK-5895,1 55964U 23037BC  24205.59274090  .00000371  00000-0  40382-4 0  9995,2 55964  70.0016 321.5181 0002892 269.1643  90.9184 14.96714058 75501,6955.195,96.211,579.071,575.048,0.0
55964.0,STARLINK-5895,PAYLOAD,2024-07-24 09:28:24,14.9671252,0.0003026,70.0013,319.5008,268.643,91.4382,-7.0772e-05,-9.01e-06,0.0,0 STARLINK-5895,1 55964U 23037BC  24206.39473000 -.00000901  00000-0 -70772-4 0  9993,2 55964  70.0013 319.5008 0003026 268.6430  91.4382 14.96712520 75969,6955.199,96.211,579.169,574.96,0.0
55964.0,STARLINK-5895,PAYLOAD,2024-07-24 17:29:35,14.96715884,0.0002886,69.9999,318.6581,266.6193,93.4635,-2.6759e-05,-3.98e-06,0.0,0 STARLINK-5895,1 55964U 23037BC  24206.72888659 -.00000398  00000-0 -26759-4 0  9996,2 55964  69.9999 318.6581 0002886 266.6193  93.4635 14.96715884 75679,6955.189,96.211,579.061,575.047,0.0
55964.0,STARLINK-5895,PAYLOAD,2024-07-25 06:19:30,14.96710251,0.0002763,69.9999,317.3128,265.3942,94.6901,-1.8353e-05,-3.02e-06,0.0,0 STARLINK-5895,1 55964U 23037BC  24207.26354637 -.00000302  00000-0 -18353-4 0  9996,2 55964  69.9999 317.3128 0002763 265.3942  94.6901 14.96710251 75755,6955.206,96.211,578.993,575.15,0.0
55964.0,STARLINK-5895,PAYLOAD,2024-07-25 09:31:58,14.96710732,0.0002803,70.0005,316.9782,266.4084,93.6753,-1.4583e-05,-2.58e-06,0.0,0 STARLINK-5895,1 55964U 23037BC  24207.39721029 -.00000258  00000-0 -14583-4 0  9994,2 55964  70.0005 316.9782 0002803 266.4084  93.6753 14.96710732 76110,6955.205,96.211,579.019,575.12,0.0
55964.0,STARLINK-5895,PAYLOAD,2024-07-25 17:33:10,14.96710166,0.0002815,70.0005,316.1379,266.65,93.4336,-1.8304e-05,-3.01e-06,0.0,0 STARLINK-5895,1 55964U 23037BC  24207.73137175 -.00000301  00000-0 -18304-4 0  9999,2 55964  70.0005 316.1379 0002815 266.6500  93.4336 14.96710166 75825,6955.207,96.211,579.03,575.114,0.0
55964.0,STARLINK-5895,PAYLOAD,2024-07-26 09:35:32,14.96723091,0.000306,70.0006,314.4584,270.5002,89.5806,0.00010523,1.113e-05,0.0,0 STARLINK-5895,1 55964U 23037BC  24208.39968001  .00001113  00000-0  10523-3 0  9996,2 55964  70.0006 314.4584 0003060 270.5002  89.5806 14.96723091 76267,6955.167,96.21,579.16,574.903,0.0
55964.0,STARLINK-5895,PAYLOAD,2024-07-26 17:36:42,14.96730743,0.0002982,70.0002,313.618,270.2214,89.8603,0.00018361,2.011e-05,0.0,0 STARLINK-5895,1 55964U 23037BC  24208.73383086  .00002011  00000-0  18361-3 0  9994,2 55964  70.0002 313.6180 0002982 270.2214  89.8603 14.96730743 76316,6955.143,96.21,579.082,574.934,0.0
55964.0,STARLINK-5895,PAYLOAD,2024-07-27 09:39:06,14.96717541,0.0002671,69.9975,311.9314,257.5435,102.5424,-3.4161e-05,-4.83e-06,0.0,0 STARLINK-5895,1 55964U 23037BC  24209.40216265 -.00000483  00000-0 -34161-4 0  9993,2 55964  69.9975 311.9314 0002671 257.5435 102.5424 14.96717541 76416,6955.184,96.211,578.906,575.191,0.0
55964.0,STARLINK-5895,PAYLOAD,2024-07-28 12:55:09,14.96727064,0.0003083,70.0,309.0794,252.9374,107.1447,-9.6549e-05,-1.197e-05,0.0,0 STARLINK-5895,1 55964U 23037BC  24210.53830117 -.00001197  00000-0 -96549-4 0  9998,2 55964  70.0000 309.0794 0003083 252.9374 107.1447 14.96727064 76582,6955.154,96.21,579.164,574.875,0.0
55964.0,STARLINK-5895,PAYLOAD,2024-07-28 16:07:37,14.96727929,0.0003202,70.0002,308.7437,266.6868,93.3924,-6.1264e-05,-7.93e-06,0.0,0 STARLINK-5895,1 55964U 23037BC  24210.67196344 -.00000793  00000-0 -61264-4 0  9997,2 55964  70.0002 308.7437 0003202 266.6868  93.3924 14.96727929 76268,6955.152,96.21,579.244,574.79,0.0
55964.0,STARLINK-5895,PAYLOAD,2024-07-29 12:58:43,14.96706992,0.0003551,70.0005,306.5588,276.5734,83.502,0.00013009,1.397e-05,0.0,0 STARLINK-5895,1 55964U 23037BC  24211.54078676  .00001397  00000-0  13009-3 0  9993,2 55964  70.0005 306.5588 0003551 276.5734  83.5020 14.96706992 76730,6955.216,96.211,579.551,574.612,0.0
55964.0,STARLINK-5895,PAYLOAD,2024-07-30 09:49:49,14.96713703,0.0003101,70.0003,304.3732,267.1705,92.9099,1.684e-05,1.01e-06,0.0,0 STARLINK-5895,1 55964U 23037BC  24212.40960191  .00000101  00000-0  16840-4 0  9990,2 55964  70.0003 304.3732 0003101 267.1705  92.9099 14.96713703 76862,6955.196,96.211,579.217,574.904,0.0
55964.0,STARLINK-5895,PAYLOAD,2024-07-31 13:05:52,14.96713126,0.0003162,69.9998,301.5158,267.5896,92.49,-5.0946e-06,-1.5e-06,0.0,0 STARLINK-5895,1 55964U 23037BC  24213.54574672 -.00000150  00000-0 -50946-5 0  9993,2 55964  69.9998 301.5158 0003162 267.5896  92.4900 14.96713126 77030,6955.197,96.211,579.262,574.863,0.0
55964.0,STARLINK-5895,PAYLOAD,2024-07-31 14:42:06,14.9671229,0.0003238,69.9999,301.3481,267.8132,92.2656,-1.3938e-05,-2.51e-06,0.0,0 STARLINK-5895,1 55964U 23037BC  24213.61257964 -.00000251  00000-0 -13938-4 0  9994,2 55964  69.9999 301.3481 0003238 267.8132  92.2656 14.96712290 76708,6955.2,96.211,579.317,574.813,0.0
55964.0,STARLINK-5895,PAYLOAD,2024-07-31 16:18:21,14.96713028,0.0003132,70.0001,301.18,266.2258,93.8543,2.2552e-05,1.67e-06,0.0,0 STARLINK-5895,1 55964U 23037BC  24213.67941043  .00000167  00000-0  22552-4 0  9994,2 55964  70.0001 301.1800 0003132 266.2258  93.8543 14.96713028 76716,6955.198,96.211,579.241,574.884,0.0
55964.0,STARLINK-5895,PAYLOAD,2024-08-01 11:33:12,14.96717536,0.0003121,70.0001,299.1627,270.8323,89.2477,5.5686e-05,5.46e-06,0.0,0 STARLINK-5895,1 55964U 23037BC  24214.48139038  .00000546  00000-0  55686-4 0  9992,2 55964  70.0001 299.1627 0003121 270.8323  89.2477 14.96717536 76837,6955.184,96.211,579.219,574.878,0.0
55964.0,STARLINK-5895,PAYLOAD,2024-08-01 22:46:51,14.96721238,0.0003316,69.9997,297.9858,273.4229,86.655,0.00013085,1.407e-05,0.0,0 STARLINK-5895,1 55964U 23037BC  24214.94920666  .00001407  00000-0  13085-3 0  9991,2 55964  69.9997 297.9858 0003316 273.4229  86.6550 14.96721238 77243,6955.172,96.21,579.344,574.731,0.0
55964.0,STARLINK-5895,PAYLOAD,2024-08-02 13:13:01,14.96710562,0.0003147,70.0001,296.474,269.3419,90.7378,-1.5201e-05,-2.66e-06,0.0,0 STARLINK-5895,1 55964U 23037BC  24215.55070644 -.00000266  00000-0 -15201-4 0  9998,2 55964  70.0001 296.4740 0003147 269.3419  90.7378 14.96710562 77335,6955.205,96.211,579.259,574.882,0.0
55964.0,STARLINK-5895,PAYLOAD,2024-08-02 14:49:15,14.96711718,0.0003124,70.0002,296.3061,269.6926,90.3874,-4.0481e-07,-9.6e-07,0.0,0 STARLINK-5895,1 55964U 23037BC  24215.61753748 -.00000096  00000-0 -40481-6 0  9999,2 55964  70.0002 296.3061 0003124 269.6926  90.3874 14.96711718 77007,6955.202,96.211,579.24,574.894,0.0
55964.0,STARLINK-5895,PAYLOAD,2024-08-02 16:25:29,14.96712853,0.000313,70.0002,296.1378,269.8174,90.2626,1.1083e-05,3.5e-07,0.0,0 STARLINK-5895,1 55964U 23037BC  24215.68436853  .00000035  00000-0  11083-4 0  9996,2 55964  70.0002 296.1378 0003130 269.8174  90.2626 14.96712853 77016,6955.198,96.211,579.24,574.886,0.0
